[{"OBJECT_NAME":"STARLINK-30334","OBJECT_ID":"2023-129X","EPOCH":"2026-03-09T22:00:01.999584","MEAN_MOTION":15.26731391,"ECCENTRICITY":0.0001144,"INCLINATION":43,"RA_OF_ASC_NODE":116.7856,"ARG_OF_PERICENTER":265.4844,"MEAN_ANOMALY":154.4592,"EPHEMERIS_TYPE":0,"CLASSIFICATION_TYPE":"U","NORAD_CAT_ID":57719,"ELEMENT_SET_NO":999,"REV_AT_EPOCH":557,"BSTAR":0.00050439309,"MEAN_MOTION_DOT":0.00013291,"MEAN_MOTION_DDOT":0},{"OBJECT_NAME":"FENGYUN 1C DEB","OBJECT_ID":"1999-025AUA","EPOCH":"2026-03-09T22:20:03.086592","MEAN_MOTION":15.37519861,"ECCENTRICITY":0.00616014,"INCLINATION":98.7858,"RA_OF_ASC_NODE":60.8335,"ARG_OF_PERICENTER":230.1589,"MEAN_ANOMALY":129.4222,"EPHEMERIS_TYPE":0,"CLASSIFICATION_TYPE":"U","NORAD_CAT_ID":30764,"ELEMENT_SET_NO":999,"REV_AT_EPOCH":2558,"BSTAR":0.00082447851,"MEAN_MOTION_DOT":0.00032356,"MEAN_MOTION_DDOT":0}]
